IRIDIUM 7               
1 24793U 97020B   24312.83435043  .00001981  00000+0  68134-3 0  9998
2 24793  86.3929 269.6258 0002584  91.5390 268.6103 14.35579360440353
IRIDIUM 5               
1 24795U 97020D   24312.62183981  .00011126  00000+0  99442-3 0  9996
2 24795  86.3954 185.5611 0114198 210.9023 148.5452 14.90840744452418
IRIDIUM 4               
1 24796U 97020E   24312.81842487  .00002103  00000+0  71067-3 0  9999
2 24796  86.3928 266.6520 0002316  90.1179 270.0284 14.36494369440710
IRIDIUM 914             
1 24836U 97030A   24312.87842280  .00002436  00000+0  76115-3 0  9990
2 24836  86.3899 275.9008 0001483 132.9778 227.1546 14.40429175437369
IRIDIUM 16              
1 24841U 97030F   24312.71710628  .00002096  00000+0  68272-3 0  9996
2 24841  86.3990 298.3398 0004497  81.7410 278.4298 14.38299303435423
IRIDIUM 911             
1 24842U 97030G   24312.81933017  .00002834  00000+0  77172-3 0  9996
2 24842  86.4415 297.2909 0016465 112.2501 248.0451 14.47068169443047
IRIDIUM 17              
1 24870U 97034B   24312.49763526  .00001795  00000+0  59439-3 0  9992
2 24870  86.3941 328.0103 0003188  61.9177 298.2342 14.37404290431734
IRIDIUM 920             
1 24871U 97034C   24312.83223117  .00002062  00000+0  63364-3 0  9998
2 24871  86.3937 307.5997 0013880  92.1139 268.1650 14.41104295434959
